{
  "40258": [
    {
      "epoch": "2025-11-25T16:53:26.515961+00:00",
      "mean_motion": 0.99115771,
      "eccentricity": 0.000379,
      "inclination": 1.3638,
      "raan": 85.1095,
      "arg_perigee": 147.7115,
      "mean_anomaly": 335.5836,
      "bstar": 0.0,
      "tle_line1": "1 40258U 14058A   25329.70377912  .00000072  00000-0  00000+0 0  9992",
      "tle_line2": "2 40258   1.3638  85.1095 0003790 147.7115 335.5836  0.99115771 38953",
      "norad_id": 40258,
      "object_name": "LUCH (OLYMP)"
    },
    {
      "epoch": "2025-11-26T03:09:21.928314+00:00",
      "mean_motion": 0.9911574500000001,
      "eccentricity": 0.00038,
      "inclination": 1.3648,
      "raan": 85.1059,
      "arg_perigee": 148.2147,
      "mean_anomaly": 127.7063,
      "bstar": 0.0,
      "tle_line1": "1 40258U 14058A   25330.13150380  .00000077  00000-0  00000+0 0  9994",
      "tle_line2": "2 40258   1.3648  85.1059 0003800 148.2147 127.7063  0.99115745 38951",
      "norad_id": 40258,
      "object_name": "LUCH (OLYMP)"
    },
    {
      "epoch": "2025-11-26T12:28:03.510925+00:00",
      "mean_motion": 0.99115754,
      "eccentricity": 0.0003814,
      "inclination": 1.3658,
      "raan": 85.1021,
      "arg_perigee": 148.5445,
      "mean_anomaly": 265.8215,
      "bstar": 0.0,
      "tle_line1": "1 40258U 14058A   25330.51948508  .00000082  00000-0  00000+0 0  9999",
      "tle_line2": "2 40258   1.3658  85.1021 0003814 148.5445 265.8215  0.99115754 38964",
      "norad_id": 40258,
      "object_name": "LUCH (OLYMP)"
    },
    {
      "epoch": "2025-11-26T15:07:54.270325+00:00",
      "mean_motion": 0.9911574400000001,
      "eccentricity": 0.0003822,
      "inclination": 1.3661,
      "raan": 85.1006,
      "arg_perigee": 148.6464,
      "mean_anomaly": 305.33,
      "bstar": 0.0,
      "tle_line1": "1 40258U 14058A   25330.63048924  .00000083  00000-0  00000+0 0  9996",
      "tle_line2": "2 40258   1.3661  85.1006 0003822 148.6464 305.3300  0.99115744 38966",
      "norad_id": 40258,
      "object_name": "LUCH (OLYMP)"
    },
    {
      "epoch": "2025-11-27T04:35:38.910889+00:00",
      "mean_motion": 0.99115718,
      "eccentricity": 0.0003844,
      "inclination": 1.3676,
      "raan": 85.095,
      "arg_perigee": 149.3197,
      "mean_anomaly": 144.8165,
      "bstar": 0.0,
      "tle_line1": "1 40258U 14058A   25331.19142258  .00000088  00000-0  00000+0 0  9998",
      "tle_line2": "2 40258   1.3676  85.0950 0003844 149.3197 144.8165  0.99115718 38960",
      "norad_id": 40258,
      "object_name": "LUCH (OLYMP)"
    },
    {
      "epoch": "2025-11-27T17:05:35.452026+00:00",
      "mean_motion": 0.9911572699999999,
      "eccentricity": 0.0003868,
      "inclination": 1.3689,
      "raan": 85.0889,
      "arg_perigee": 149.865,
      "mean_anomaly": 330.1087,
      "bstar": 0.0,
      "tle_line1": "1 40258U 14058A   25331.71221588  .00000093  00000-0  00000+0 0  9996",
      "tle_line2": "2 40258   1.3689  85.0889 0003868 149.8650 330.1087  0.99115727 38974",
      "norad_id": 40258,
      "object_name": "LUCH (OLYMP)"
    },
    {
      "epoch": "2025-11-28T03:03:30.326965+00:00",
      "mean_motion": 0.9911572300000001,
      "eccentricity": 0.000389,
      "inclination": 1.37,
      "raan": 85.0844,
      "arg_perigee": 150.3823,
      "mean_anomaly": 117.75560000000002,
      "bstar": 0.0,
      "tle_line1": "1 40258U 14058A   25332.12743434  .00000096  00000-0  00000+0 0  9994",
      "tle_line2": "2 40258   1.3700  85.0844 0003890 150.3823 117.7556  0.99115723 38979",
      "norad_id": 40258,
      "object_name": "LUCH (OLYMP)"
    },
    {
      "epoch": "2025-11-28T15:01:59.706329+00:00",
      "mean_motion": 0.9911576700000001,
      "eccentricity": 0.0003905,
      "inclination": 1.3714,
      "raan": 85.0782,
      "arg_perigee": 150.9496,
      "mean_anomaly": 295.2323,
      "bstar": 0.0,
      "tle_line1": "1 40258U 14058A   25332.62638549  .00000099  00000-0  00000+0 0  9992",
      "tle_line2": "2 40258   1.3714  85.0782 0003905 150.9496 295.2323  0.99115767 38987",
      "norad_id": 40258,
      "object_name": "LUCH (OLYMP)"
    },
    {
      "epoch": "2025-11-29T03:00:14.075439+00:00",
      "mean_motion": 0.9911577999999999,
      "eccentricity": 0.0003938,
      "inclination": 1.3727,
      "raan": 85.0718,
      "arg_perigee": 151.5542,
      "mean_anomaly": 112.6096,
      "bstar": 0.0,
      "tle_line1": "1 40258U 14058A   25333.12516291  .00000101  00000-0  00000+0 0  9991",
      "tle_line2": "2 40258   1.3727  85.0718 0003938 151.5542 112.6096  0.99115780 38989",
      "norad_id": 40258,
      "object_name": "LUCH (OLYMP)"
    },
    {
      "epoch": "2025-11-29T14:59:00.187012+00:00",
      "mean_motion": 0.99115853,
      "eccentricity": 0.000395,
      "inclination": 1.3741,
      "raan": 85.0647,
      "arg_perigee": 152.1407,
      "mean_anomaly": 290.1374,
      "bstar": 0.0,
      "tle_line1": "1 40258U 14058A   25333.62430772  .00000102  00000-0  00000+0 0  9996",
      "tle_line2": "2 40258   1.3741  85.0647 0003950 152.1407 290.1374  0.99115853 38990",
      "norad_id": 40258,
      "object_name": "LUCH (OLYMP)"
    },
    {
      "epoch": "2025-11-30T01:14:56.763184+00:00",
      "mean_motion": 0.99115895,
      "eccentricity": 0.0003981,
      "inclination": 1.3753,
      "raan": 85.06,
      "arg_perigee": 152.6049,
      "mean_anomaly": 82.3052,
      "bstar": 0.0,
      "tle_line1": "1 40258U 14058A   25334.05204587  .00000103  00000-0  00000+0 0  9998",
      "tle_line2": "2 40258   1.3753  85.0600 0003981 152.6049  82.3052  0.99115895 38993",
      "norad_id": 40258,
      "object_name": "LUCH (OLYMP)"
    },
    {
      "epoch": "2025-11-30T09:50:38.815033+00:00",
      "mean_motion": 0.99115944,
      "eccentricity": 0.0003995,
      "inclination": 1.3763,
      "raan": 85.0561,
      "arg_perigee": 153.0809,
      "mean_anomaly": 209.6213,
      "bstar": 0.0,
      "tle_line1": "1 40258U 14058A   25334.41017147  .00000102  00000-0  00000+0 0  9991",
      "tle_line2": "2 40258   1.3763  85.0561 0003995 153.0809 209.6213  0.99115944 39005",
      "norad_id": 40258,
      "object_name": "LUCH (OLYMP)"
    },
    {
      "epoch": "2025-11-30T16:38:42.954987+00:00",
      "mean_motion": 0.9911602100000001,
      "eccentricity": 0.0004,
      "inclination": 1.3772,
      "raan": 85.04990000000001,
      "arg_perigee": 153.3595,
      "mean_anomaly": 310.4663,
      "bstar": 0.0,
      "tle_line1": "1 40258U 14058A   25334.69355272  .00000102  00000-0  00000+0 0  9995",
      "tle_line2": "2 40258   1.3772  85.0499 0004000 153.3595 310.4663  0.99116021 39005",
      "norad_id": 40258,
      "object_name": "LUCH (OLYMP)"
    },
    {
      "epoch": "2025-12-01T11:27:53.616089+00:00",
      "mean_motion": 0.99116167,
      "eccentricity": 0.0004043,
      "inclination": 1.3794,
      "raan": 85.0419,
      "arg_perigee": 154.2966,
      "mean_anomaly": 229.3422,
      "bstar": 0.0,
      "tle_line1": "1 40258U 14058A   25335.47770389  .00000098  00000-0  00000+0 0  9996",
      "tle_line2": "2 40258   1.3794  85.0419 0004043 154.2966 229.3422  0.99116167 39013",
      "norad_id": 40258,
      "object_name": "LUCH (OLYMP)"
    },
    {
      "epoch": "2025-12-01T16:35:46.629028+00:00",
      "mean_motion": 0.99116248,
      "eccentricity": 0.0004045,
      "inclination": 1.3801,
      "raan": 85.0366,
      "arg_perigee": 154.4926,
      "mean_anomaly": 305.4438,
      "bstar": 0.0,
      "tle_line1": "1 40258U 14058A   25335.69151191  .00000097  00000-0  00000+0 0  9993",
      "tle_line2": "2 40258   1.3801  85.0366 0004045 154.4926 305.4438  0.99116248 39016",
      "norad_id": 40258,
      "object_name": "LUCH (OLYMP)"
    },
    {
      "epoch": "2025-12-02T02:51:40.766968+00:00",
      "mean_motion": 0.99116355,
      "eccentricity": 0.0004072,
      "inclination": 1.3813,
      "raan": 85.033,
      "arg_perigee": 154.92540000000002,
      "mean_anomaly": 97.6324,
      "bstar": 0.0,
      "tle_line1": "1 40258U 14058A   25336.11922184  .00000093  00000-0  00000+0 0  9995",
      "tle_line2": "2 40258   1.3813  85.0330 0004072 154.9254  97.6324  0.99116355 39012",
      "norad_id": 40258,
      "object_name": "LUCH (OLYMP)"
    },
    {
      "epoch": "2025-12-02T11:10:38.849945+00:00",
      "mean_motion": 0.99116456,
      "eccentricity": 0.0004087,
      "inclination": 1.3824,
      "raan": 85.0306,
      "arg_perigee": 155.3863,
      "mean_anomaly": 220.8166,
      "bstar": 0.0,
      "tle_line1": "1 40258U 14058A   25336.46572743  .00000090  00000-0  00000+0 0  9992",
      "tle_line2": "2 40258   1.3824  85.0306 0004087 155.3863 220.8166  0.99116456 39021",
      "norad_id": 40258,
      "object_name": "LUCH (OLYMP)"
    },
    {
      "epoch": "2025-12-02T16:32:50.536316+00:00",
      "mean_motion": 0.99116555,
      "eccentricity": 0.0004087,
      "inclination": 1.3831,
      "raan": 85.02520000000001,
      "arg_perigee": 155.6044,
      "mean_anomaly": 300.4426,
      "bstar": 0.0,
      "tle_line1": "1 40258U 14058A   25336.68947380  .00000088  00000-0  00000+0 0  9996",
      "tle_line2": "2 40258   1.3831  85.0252 0004087 155.6044 300.4426  0.99116555 39027",
      "norad_id": 40258,
      "object_name": "LUCH (OLYMP)"
    },
    {
      "epoch": "2025-12-03T02:48:45.870056+00:00",
      "mean_motion": 0.99116703,
      "eccentricity": 0.0004108,
      "inclination": 1.3843000000000003,
      "raan": 85.0211,
      "arg_perigee": 156.0481,
      "mean_anomaly": 92.6263,
      "bstar": 0.0,
      "tle_line1": "1 40258U 14058A   25337.11719757  .00000082  00000-0  00000+0 0  9994",
      "tle_line2": "2 40258   1.3843  85.0211 0004108 156.0481  92.6263  0.99116703 39023",
      "norad_id": 40258,
      "object_name": "LUCH (OLYMP)"
    }
  ],
  "44878": []
}